INSERT INTO "sqlite_master" VALUES('table','Address','Address',2,'CREATE TABLE "Address" ("AddressID" INTEGER PRIMARY KEY  NOT NULL , "Street" VARCHAR, "City" VARCHAR, "State" VARCHAR, "Zip" VARCHAR)');
INSERT INTO "sqlite_master" VALUES('table','Author','Author',3,'CREATE TABLE "Author" ("PersonID" INTEGER PRIMARY KEY NOT NULL ,"Favorites" INTEGER,"Rating" DOUBLE,"Birthdate" VARCHAR DEFAULT (null), FOREIGN KEY("PersonID") REFERENCES "Person(PersonID)" )');
INSERT INTO "sqlite_master" VALUES('table','Book','Book',4,'CREATE TABLE "Book" ("ISBN" VARCHAR PRIMARY KEY  NOT NULL ,"Price" DOUBLE DEFAULT (null) ,"Year" INTEGER,"Title" VARCHAR,"Category" VARCHAR DEFAULT (null) ,"Stock" INTEGER DEFAULT (0) )');
INSERT INTO "sqlite_master" VALUES('index','sqlite_autoindex_Book_1','Book',5,NULL);
INSERT INTO "sqlite_master" VALUES('table','Customer','Customer',6,'CREATE TABLE "Customer" ("PersonID" INTEGER PRIMARY KEY  NOT NULL ,"EmailAddress" VARCHAR DEFAULT (null), FOREIGN KEY ("PersonID") REFERENCES "Person(PersonID)" )');
INSERT INTO "sqlite_master" VALUES('table','Customer_Info','Customer_Info',7,'CREATE TABLE "Customer_Info" ("EmailAddress" VARCHAR PRIMARY KEY  NOT NULL  DEFAULT (null) ,"Preferences" VARCHAR,"Password" VARCHAR)');
INSERT INTO "sqlite_master" VALUES('index','sqlite_autoindex_Customer_Info_1','Customer_Info',8,NULL);
INSERT INTO "sqlite_master" VALUES('table','Have_Purchased','Have_Purchased',9,'CREATE TABLE "Have_Purchased" ("ISBN" VARCHAR NOT NULL , "PersonID" INTEGER NOT NULL , "Qty" INTEGER, PRIMARY KEY ("ISBN", "PersonID"), FOREIGN KEY ("ISBN") REFERENCES "Book(ISBN)", FOREIGN KEY ("PersonID") REFERENCES "Person(PersonID)")');
INSERT INTO "sqlite_master" VALUES('index','sqlite_autoindex_Have_Purchased_1','Have_Purchased',10,NULL);
INSERT INTO "sqlite_master" VALUES('table','Offline','Offline',11,'CREATE TABLE "Offline" ("OrderNumber" INTEGER PRIMARY KEY  NOT NULL  DEFAULT (null) ,"Location" VARCHAR, FOREIGN KEY ("OrderNumber") REFERENCES "Order(OrderNumber)" )');
INSERT INTO "sqlite_master" VALUES('table','Online','Online',12,'CREATE TABLE "Online" ("OrderNumber" INTEGER PRIMARY KEY  NOT NULL  DEFAULT (null) ,"DeliveryDay" DATETIME DEFAULT (null), FOREIGN KEY ("OrderNumber") REFERENCES "Order(OrderNumber)" )');
INSERT INTO "sqlite_master" VALUES('table','Order','Order',13,'CREATE TABLE "Order" ("OrderNumber" INTEGER PRIMARY KEY  NOT NULL  DEFAULT (null) ,"TransNum" INTEGER, FOREIGN KEY ("TransNum") REFERENCES "Payment(TransNum)" )');
INSERT INTO "sqlite_master" VALUES('table','Order_Status','Order_Status',14,'CREATE TABLE "Order_Status" ("OrderNumber" INTEGER PRIMARY KEY  NOT NULL  DEFAULT (null) ,"Status" VARCHAR )');
INSERT INTO "sqlite_master" VALUES('table','Order_For','Order_For',15,'CREATE TABLE "Order_For" ("ISBN" VARCHAR PRIMARY KEY  NOT NULL ,"OrderNumber" INTEGER NOT NULL  DEFAULT (null) ,"Qty" INTEGER, FOREIGN KEY ("OrderNumber") REFERENCES "Order(OrderNumber)", FOREIGN KEY ("ISBN") REFERENCES "Book(ISBN)" )');
INSERT INTO "sqlite_master" VALUES('index','sqlite_autoindex_Order_For_1','Order_For',16,NULL);
INSERT INTO "sqlite_master" VALUES('table','Payment','Payment',17,'CREATE TABLE "Payment" ("TransNum" INTEGER PRIMARY KEY  NOT NULL , "Type" VARCHAR, "Amount" DOUBLE, "Date" DATETIME, "PersonID" INTEGER REFERENCES "Person(PersonID)")');
INSERT INTO "sqlite_master" VALUES('table','Person','Person',18,'CREATE TABLE "Person" ("PersonID" INTEGER PRIMARY KEY  NOT NULL , "First" VARCHAR, "Middle" VARCHAR, "Last" VARCHAR, "AddressID" INTEGER REFERENCES "Address(AddressID)")');
INSERT INTO "sqlite_master" VALUES('table','Published_By','Published_By',19,'CREATE TABLE "Published_By" ("PublisherName" VARCHAR NOT NULL , "ISBN" VARCHAR NOT NULL , PRIMARY KEY ("PublisherName", "ISBN"), FOREIGN KEY ("PublisherName") REFERENCES "Publisher(PublisherName)", FOREIGN KEY ("ISBN") REFERENCES "Book(ISBN)")');
INSERT INTO "sqlite_master" VALUES('index','sqlite_autoindex_Published_By_1','Published_By',20,NULL);
INSERT INTO "sqlite_master" VALUES('table','Publisher','Publisher',21,'CREATE TABLE "Publisher" ("PublisherName" VARCHAR PRIMARY KEY  NOT NULL  DEFAULT (null) ,"AddressID" INTEGER, FOREIGN KEY ("AddressID") REFERENCES "Address(AddressID)")');
INSERT INTO "sqlite_master" VALUES('index','sqlite_autoindex_Publisher_1','Publisher',22,NULL);
INSERT INTO "sqlite_master" VALUES('table','Written_By','Written_By',23,'CREATE TABLE "Written_By" ("ISBN" VARCHAR NOT NULL , "PersonID" INTEGER NOT NULL , PRIMARY KEY ("ISBN", "PersonID"), FOREIGN KEY ("ISBN") REFERENCES "Book(ISBN)", FOREIGN KEY ("PersonID") REFERENCES "Person(PersonID)")');
INSERT INTO "sqlite_master" VALUES('index','sqlite_autoindex_Written_By_1','Written_By',24,NULL);
